COSMOS 2553             
1 51511U 22011A   22039.70880879 -.00000249  00000+0 -58717-2 0  9998
2 51511  67.0888 223.6447 0003962 266.9968  93.0522 11.32884403   393
